STARLINK-35410          
1 66024U 25232V   26164.30121510  .00018588  00000+0  55914-3 0  9990
2 66024  53.1596  19.1260 0001489  75.5832 284.5336 15.34443295 38080
STARLINK-35280          
1 66025U 25232W   26163.88130849  .00022409  00000+0  76620-3 0  9992
2 66025  53.1604  21.4803 0001122  86.9113 273.2016 15.30210325 38017
STARLINK-34812          
1 66026U 25232X   26164.32648215  .00022835  00000+0  68476-3 0  9997
2 66026  53.1608  19.2865 0001050  72.3176 287.7942 15.34406185 38072
STARLINK-35341          
1 66027U 25232Y   26163.88315825  .00029271  00000+0  87289-3 0  9990
2 66027  53.1597  21.4891 0000709  61.3075 298.7999 15.34442304 38011
STARLINK-35339          
1 66028U 25232Z   26163.88736560  .00024864  00000+0  74408-3 0  9996
2 66028  53.1606  21.5105 0000921  78.7127 281.3979 15.34421245 38015
STARLINK-35399          
1 66029U 25232AA  26164.58335648  .00037574  00000+0  11188-2 0  9994
2 66029  53.1594  18.4420 0001230  89.3528  64.3821 15.34368053  5920
STARLINK-35431          
1 66030U 25232AB  26164.39582238  .00026505  00000+0  79241-3 0  9991
2 66030  53.1604  18.9968 0000933  75.8538 284.2568 15.34415828 38094
STARLINK-35326          
1 66031U 25232AC  26164.29912986  .00024647  00000+0  73799-3 0  9995
2 66031  53.1595  19.1037 0001262  90.0413 270.0734 15.34408644 38086
STARLINK-35311          
1 66032U 25232AD  26164.30333795  .00023192  00000+0  69567-3 0  9995
2 66032  53.1597  19.1285 0001174  87.5161 272.5976 15.34388508 38088
STARLINK-35552          
1 66058U 25235A   26164.29596405  .00023849  00000+0  71407-3 0  9998
2 66058  53.1580 157.2852 0001161 106.9416 253.1714 15.34429349 37619
STARLINK-35560          
1 66059U 25235B   26164.25942303  .00026886  00000+0  91602-3 0  9990
2 66059  53.1583 161.3599 0001280  72.8421 287.2719 15.30219904 37552
STARLINK-35558          
1 66060U 25235C   26164.28580481  .00020407  00000+0  69923-3 0  9994
2 66060  53.1556 161.5211 0001231  79.9090 280.2050 15.30199962 37555
STARLINK-35566          
1 66061U 25235D   26164.30575033  .00010457  00000+0  36461-3 0  9990
2 66061  53.1581 160.9348 0001362  62.4377 297.6762 15.30208529 37561
STARLINK-35421          
1 66062U 25235E   26164.58335648 -.00011547  00000+0 -33126-3 0  9995
2 66062  53.1595 159.8829 0001089  83.9348 247.4902 15.34387772  5768
STARLINK-35562          
1 66063U 25235F   26164.29424264  .00002850  00000+0  10836-3 0  9995
2 66063  53.1574 161.5708 0001365  86.2842 273.8315 15.30191410 37555
STARLINK-35542          
1 66064U 25235G   26164.27523345  .00027753  00000+0  94368-3 0  9995
2 66064  53.1568 161.4594 0001806 108.4125 251.7072 15.30266777 37556
STARLINK-35375          
1 66065U 25235H   26164.29213458  .00013224  00000+0  45780-3 0  9991
2 66065  53.1569 161.5619 0001318  90.1058 270.0094 15.30201551 37554
STARLINK-35179          
1 66066U 25235J   26164.27947227  .00015997  00000+0  55099-3 0  9991
2 66066  53.1560 161.4811 0001210  91.0125 269.1014 15.30204666 37556
STARLINK-35401          
1 66067U 25235K   26164.58335648 -.00012477  00000+0 -35892-3 0  9995
2 66067  53.1594 159.7897 0001160  47.5520 330.4283 15.34385344  5863
STARLINK-35422          
1 66068U 25235L   26164.25307527  .00030613  00000+0  10394-2 0  9994
2 66068  53.1581 161.3183 0002624  80.7697 279.3600 15.30261375 37522
STARLINK-35279          
1 66069U 25235M   26164.31207090  .00008645  00000+0  30361-3 0  9993
2 66069  53.1586 160.9714 0001218  92.7723 267.3417 15.30206949 37567
STARLINK-35295          
1 66070U 25235N   26164.28791642  .00020747  00000+0  71025-3 0  9991
2 66070  53.1564 161.5281 0001257  88.9134 271.2010 15.30218216 37559
STARLINK-35323          
1 66071U 25235P   26164.29940820  .00011979  00000+0  41592-3 0  9990
2 66071  53.1579 160.8918 0001373  92.5893 267.5265 15.30200389 37560
STARLINK-35299          
1 66072U 25235Q   26162.31264416  .00008677  00000+0  30473-3 0  9999
2 66072  53.1570 170.5382 0001122  98.9228 261.1899 15.30200800 37256
STARLINK-35274          
1 66073U 25235R   26164.28897927 -.00000059  00000+0  10138-4 0  9991
2 66073  53.1575 161.5410 0001446 100.5230 259.5933 15.30178211 37559
STARLINK-35321          
1 66074U 25235S   26164.28263882  .00019770  00000+0  67780-3 0  9992
2 66074  53.1556 161.4988 0001142  84.4849 275.6282 15.30202483 37552
STARLINK-35131          
1 66075U 25235T   26164.45939855  .00564116  00000+0  17411-1 0  9995
2 66075  53.1584 160.4684 0000633  77.7434 282.3638 15.31027038 37580
STARLINK-34801          
1 66076U 25235U   26164.27630561  .00015573  00000+0  53676-3 0  9991
2 66076  53.1565 161.4595 0001245  85.9834 274.1309 15.30202232 37558
STARLINK-35129          
1 66077U 25235V   26164.26997604  .00017334  00000+0  59599-3 0  9992
2 66077  53.1563 161.4189 0001141  82.0549 278.0581 15.30201435 37551
STARLINK-35116          
1 66078U 25235W   26164.24992211  .00018166  00000+0  62364-3 0  9998
2 66078  53.1585 161.2953 0002124  81.4763 278.6479 15.30215747 37559
