OBJECT_NAME,OBJECT_ID,EPOCH,MEAN_MOTION,ECCENTRICITY,INCLINATION,RA_OF_ASC_NODE,ARG_OF_PERICENTER,MEAN_ANOMALY,EPHEMERIS_TYPE,CLASSIFICATION_TYPE,NORAD_CAT_ID,ELEMENT_SET_NO,REV_AT_EPOCH,BSTAR,MEAN_MOTION_DOT,MEAN_MOTION_DDOT
STARLINK-35410,2025-232V,2026-06-13T07:13:44.984640,15.34443295,.0001489,53.1596,19.1260,75.5832,284.5336,0,U,66024,999,3808,.55913617E-3,.18588E-3,0
STARLINK-35280,2025-232W,2026-06-12T21:09:05.053536,15.30210325,.00011225,53.1604,21.4803,86.9113,273.2016,0,U,66025,999,3801,.766198E-3,.22409E-3,0
STARLINK-34812,2025-232X,2026-06-13T07:50:08.057760,15.34406185,.00010505,53.1608,19.2865,72.3176,287.7942,0,U,66026,999,3807,.68476319E-3,.22835E-3,0
STARLINK-35341,2025-232Y,2026-06-12T21:11:44.872800,15.34442304,.00007099,53.1597,21.4891,61.3075,298.7999,0,U,66027,999,3801,.87289031E-3,.29271E-3,0
STARLINK-35339,2025-232Z,2026-06-12T21:17:48.387840,15.34421245,.00009218,53.1606,21.5105,78.7127,281.3979,0,U,66028,999,3801,.74408462E-3,.24864E-3,0
STARLINK-35399,2025-232AA,2026-06-13T14:00:01.999872,15.34368053,.00012302,53.1594,18.4420,89.3528,64.3821,0,U,66029,999,592,.11187665E-2,.37574E-3,0
STARLINK-35431,2025-232AB,2026-06-13T09:29:59.053632,15.34415828,.00009334,53.1604,18.9968,75.8538,284.2568,0,U,66030,999,3809,.79240919E-3,.26505E-3,0
STARLINK-35326,2025-232AC,2026-06-13T07:10:44.819904,15.34408644,.00012621,53.1595,19.1037,90.0413,270.0734,0,U,66031,999,3808,.73799485E-3,.24647E-3,0
STARLINK-35311,2025-232AD,2026-06-13T07:16:48.398880,15.34388508,.0001174,53.1597,19.1285,87.5161,272.5976,0,U,66032,999,3808,.69566589E-3,.23192E-3,0
STARLINK-35552,2025-235A,2026-06-13T07:06:11.293920,15.34429349,.00011613,53.1580,157.2852,106.9416,253.1714,0,U,66058,999,3761,.71406699E-3,.23849E-3,0
STARLINK-35560,2025-235B,2026-06-13T06:13:34.149792,15.30219904,.000128,53.1583,161.3599,72.8421,287.2719,0,U,66059,999,3755,.91602E-3,.26886E-3,0
STARLINK-35558,2025-235C,2026-06-13T06:51:33.535584,15.30199962,.0001231,53.1556,161.5211,79.9090,280.2050,0,U,66060,999,3755,.69923E-3,.20407E-3,0
STARLINK-35566,2025-235D,2026-06-13T07:20:16.828512,15.30208529,.00013622,53.1581,160.9348,62.4377,297.6762,0,U,66061,999,3756,.36460637E-3,.10457E-3,0
STARLINK-35421,2025-235E,2026-06-13T14:00:01.999872,15.34387772,.00010899,53.1595,159.8829,83.9348,247.4902,0,U,66062,999,576,-.33125565E-3,-.11547E-3,0
STARLINK-35562,2025-235F,2026-06-13T07:03:42.564096,15.30191410,.0001365,53.1574,161.5708,86.2842,273.8315,0,U,66063,999,3755,.10836E-3,.285E-4,0
STARLINK-35542,2025-235G,2026-06-13T06:36:20.170080,15.30266777,.0001806,53.1568,161.4594,108.4125,251.7072,0,U,66064,999,3755,.94368E-3,.27753E-3,0
STARLINK-35375,2025-235H,2026-06-13T07:00:40.427712,15.30201551,.0001318,53.1569,161.5619,90.1058,270.0094,0,U,66065,999,3755,.4578E-3,.13224E-3,0
STARLINK-35179,2025-235J,2026-06-13T06:42:26.404128,15.30204666,.000121,53.1560,161.4811,91.0125,269.1014,0,U,66066,999,3755,.55099E-3,.15997E-3,0
STARLINK-35401,2025-235K,2026-06-13T14:00:01.999872,15.34385344,.00011606,53.1594,159.7897,47.5520,330.4283,0,U,66067,999,586,-.35891768E-3,-.12477E-3,0
STARLINK-35422,2025-235L,2026-06-13T06:04:25.703328,15.30261375,.0002624,53.1581,161.3183,80.7697,279.3600,0,U,66068,999,3752,.10394E-2,.30613E-3,0
STARLINK-35279,2025-235M,2026-06-13T07:29:22.925760,15.30206949,.00012181,53.1586,160.9714,92.7723,267.3417,0,U,66069,999,3756,.30361078E-3,.8645E-4,0
STARLINK-35295,2025-235N,2026-06-13T06:54:35.978688,15.30218216,.0001257,53.1564,161.5281,88.9134,271.2010,0,U,66070,999,3755,.71025E-3,.20747E-3,0
STARLINK-35323,2025-235P,2026-06-13T07:11:08.868480,15.30200389,.00013737,53.1579,160.8918,92.5893,267.5265,0,U,66071,999,3756,.41592048E-3,.11979E-3,0
STARLINK-35299,2025-235Q,2026-06-11T07:30:12.455424,15.30200800,.0001122,53.1570,170.5382,98.9228,261.1899,0,U,66072,999,3725,.30473E-3,.8677E-4,0
STARLINK-35274,2025-235R,2026-06-13T06:56:07.808928,15.30178211,.0001446,53.1575,161.5410,100.5230,259.5933,0,U,66073,999,3755,.10138E-4,-.59E-6,0
STARLINK-35321,2025-235S,2026-06-13T06:46:59.994048,15.30202483,.0001142,53.1556,161.4988,84.4849,275.6282,0,U,66074,999,3755,.6778E-3,.1977E-3,0
STARLINK-35131,2025-235T,2026-06-13T11:01:32.034720,15.31027038,.00006337,53.1584,160.4684,77.7434,282.3638,0,U,66075,999,3758,.17410848E-1,.564116E-2,0
STARLINK-34801,2025-235U,2026-06-13T06:37:52.804704,15.30202232,.0001245,53.1565,161.4595,85.9834,274.1309,0,U,66076,999,3755,.53676E-3,.15573E-3,0
STARLINK-35129,2025-235V,2026-06-13T06:28:45.929856,15.30201435,.0001141,53.1563,161.4189,82.0549,278.0581,0,U,66077,999,3755,.59599E-3,.17334E-3,0
STARLINK-35116,2025-235W,2026-06-13T05:59:53.270304,15.30215747,.0002124,53.1585,161.2953,81.4763,278.6479,0,U,66078,999,3755,.62364E-3,.18166E-3,0
